{
  "type": "FeatureCollection",
  "features": [
    {
      "type": "Feature",
      "geometry": {
        "coordinates": [
          -43.109386,
          -22.839635
        ],
        "type": "Point"
      },
      "properties": {
        "osm_type": "N",
        "osm_id": 13323822519,
        "osm_key": "military",
        "osm_value": "base",
        "type": "house",
        "name": "CMASM",
        "street": "Avenida Paiva, Neves 1",
        "district": "Neves I",
        "city": "São Gonçalo",
        "state": "Rio de Janeiro",
        "country": "Brazil",
        "postcode": "24722-590",
        "countrycode": "BR"
      },
      "id": "2wDH9"
    }
  ]
}