<?xml version="1.0" encoding="UTF-8"?>
<kml xmlns="http://www.opengis.net/kml/2.2" xmlns:gx="http://www.google.com/kml/ext/2.2" xmlns:kml="http://www.opengis.net/kml/2.2" xmlns:atom="http://www.w3.org/2005/Atom">
<Document id="1z52Fgs1cnp3pRtySxxLB2VofGkCy8za6">
	<name>Mapa sem título</name>
	<gx:CascadingStyle kml:id="__managed_style_015857FDCA3FCBFD44BE_highlight">
		<Style>
			<IconStyle>
				<scale>1.2</scale>
				<Icon>
					<href>https://earth.google.com/earth/document/icon?color=1976d2&amp;id=2000&amp;scale=4</href>
				</Icon>
				<hotSpot x="64" y="128" xunits="pixels" yunits="insetPixels"/>
			</IconStyle>
			<LabelStyle>
			</LabelStyle>
			<LineStyle>
				<color>ff2dc0fb</color>
				<width>6</width>
			</LineStyle>
			<PolyStyle>
				<color>40ffffff</color>
			</PolyStyle>
			<BalloonStyle>
			</BalloonStyle>
		</Style>
	</gx:CascadingStyle>
	<gx:CascadingStyle kml:id="__managed_style_015857FDCA3FCBFD44BE_normal">
		<Style>
			<IconStyle>
				<Icon>
					<href>https://earth.google.com/earth/document/icon?color=1976d2&amp;id=2000&amp;scale=4</href>
				</Icon>
				<hotSpot x="64" y="128" xunits="pixels" yunits="insetPixels"/>
			</IconStyle>
			<LabelStyle>
			</LabelStyle>
			<LineStyle>
				<color>ff2dc0fb</color>
				<width>4</width>
			</LineStyle>
			<PolyStyle>
				<color>40ffffff</color>
			</PolyStyle>
			<BalloonStyle>
			</BalloonStyle>
		</Style>
	</gx:CascadingStyle>
	<gx:CascadingStyle kml:id="__managed_style_1242E778563FCBFD44C0_highlight">
		<Style>
			<IconStyle>
				<scale>1.2</scale>
				<Icon>
					<href>https://earth.google.com/earth/document/icon?color=1976d2&amp;id=2000&amp;scale=4</href>
				</Icon>
				<hotSpot x="64" y="128" xunits="pixels" yunits="insetPixels"/>
			</IconStyle>
			<LabelStyle>
			</LabelStyle>
			<LineStyle>
				<color>ff2f2fd3</color>
				<width>12</width>
			</LineStyle>
			<PolyStyle>
				<color>40ffffff</color>
			</PolyStyle>
			<BalloonStyle>
			</BalloonStyle>
		</Style>
	</gx:CascadingStyle>
	<StyleMap id="__managed_style_015857FDCA3FCBFD44BE">
		<Pair>
			<key>normal</key>
			<styleUrl>#__managed_style_015857FDCA3FCBFD44BE_normal</styleUrl>
		</Pair>
		<Pair>
			<key>highlight</key>
			<styleUrl>#__managed_style_015857FDCA3FCBFD44BE_highlight</styleUrl>
		</Pair>
	</StyleMap>
	<gx:CascadingStyle kml:id="__managed_style_1242E778563FCBFD44C0_normal">
		<Style>
			<IconStyle>
				<Icon>
					<href>https://earth.google.com/earth/document/icon?color=1976d2&amp;id=2000&amp;scale=4</href>
				</Icon>
				<hotSpot x="64" y="128" xunits="pixels" yunits="insetPixels"/>
			</IconStyle>
			<LabelStyle>
			</LabelStyle>
			<LineStyle>
				<color>ff2f2fd3</color>
				<width>8</width>
			</LineStyle>
			<PolyStyle>
				<color>40ffffff</color>
			</PolyStyle>
			<BalloonStyle>
			</BalloonStyle>
		</Style>
	</gx:CascadingStyle>
	<StyleMap id="__managed_style_1242E778563FCBFD44C0">
		<Pair>
			<key>normal</key>
			<styleUrl>#__managed_style_1242E778563FCBFD44C0_normal</styleUrl>
		</Pair>
		<Pair>
			<key>highlight</key>
			<styleUrl>#__managed_style_1242E778563FCBFD44C0_highlight</styleUrl>
		</Pair>
	</StyleMap>
	<gx:CascadingStyle kml:id="__managed_style_01BC60D1DE3FCBFD44C0_normal">
		<Style>
			<IconStyle>
				<Icon>
					<href>https://earth.google.com/earth/document/icon?color=1976d2&amp;id=2000&amp;scale=4</href>
				</Icon>
				<hotSpot x="64" y="128" xunits="pixels" yunits="insetPixels"/>
			</IconStyle>
			<LabelStyle>
			</LabelStyle>
			<LineStyle>
				<color>ff2dc0fb</color>
				<width>4</width>
			</LineStyle>
			<PolyStyle>
				<color>40ffffff</color>
			</PolyStyle>
			<BalloonStyle>
			</BalloonStyle>
		</Style>
	</gx:CascadingStyle>
	<gx:CascadingStyle kml:id="__managed_style_01BC60D1DE3FCBFD44C0_highlight">
		<Style>
			<IconStyle>
				<scale>1.2</scale>
				<Icon>
					<href>https://earth.google.com/earth/document/icon?color=1976d2&amp;id=2000&amp;scale=4</href>
				</Icon>
				<hotSpot x="64" y="128" xunits="pixels" yunits="insetPixels"/>
			</IconStyle>
			<LabelStyle>
			</LabelStyle>
			<LineStyle>
				<color>ff2dc0fb</color>
				<width>6</width>
			</LineStyle>
			<PolyStyle>
				<color>40ffffff</color>
			</PolyStyle>
			<BalloonStyle>
			</BalloonStyle>
		</Style>
	</gx:CascadingStyle>
	<StyleMap id="__managed_style_01BC60D1DE3FCBFD44C0">
		<Pair>
			<key>normal</key>
			<styleUrl>#__managed_style_01BC60D1DE3FCBFD44C0_normal</styleUrl>
		</Pair>
		<Pair>
			<key>highlight</key>
			<styleUrl>#__managed_style_01BC60D1DE3FCBFD44C0_highlight</styleUrl>
		</Pair>
	</StyleMap>
	<Placemark id="0F9D692D2D3F82971932">
		<name>ET2</name>
		<LookAt>
			<longitude>-43.10643250956826</longitude>
			<latitude>-22.83804269885827</latitude>
			<altitude>11.55624809964635</altitude>
			<heading>43.55707829557336</heading>
			<tilt>0</tilt>
			<gx:fovy>30</gx:fovy>
			<range>1343.459230589069</range>
			<altitudeMode>absolute</altitudeMode>
		</LookAt>
		<styleUrl>#__managed_style_01BC60D1DE3FCBFD44C0</styleUrl>
		<Point>
			<coordinates>-43.10643250956826,-22.83804269885827,11.55624809964635</coordinates>
		</Point>
	</Placemark>
	<Placemark id="043CDA0F773F82A217BB">
		<name>canaleta</name>
		<LookAt>
			<longitude>-43.10644036890713</longitude>
			<latitude>-22.83767153348854</latitude>
			<altitude>11.03059251868168</altitude>
			<heading>328.7969478578889</heading>
			<tilt>0</tilt>
			<gx:fovy>30</gx:fovy>
			<range>988.9784300896281</range>
			<altitudeMode>absolute</altitudeMode>
		</LookAt>
		<styleUrl>#__managed_style_1242E778563FCBFD44C0</styleUrl>
		<LineString>
			<coordinates>
				-43.10642162516575,-22.83801714821899,0 -43.10749078546421,-22.83637366060226,0 
			</coordinates>
		</LineString>
	</Placemark>
	<Placemark id="0E042A7C9C3F8298351B">
		<name>inf</name>
		<LookAt>
			<longitude>-43.10674778588796</longitude>
			<latitude>-22.83759501641349</latitude>
			<altitude>21.27326760308137</altitude>
			<heading>43.5573102081795</heading>
			<tilt>0</tilt>
			<gx:fovy>30</gx:fovy>
			<range>441.4194657907502</range>
			<altitudeMode>absolute</altitudeMode>
		</LookAt>
		<styleUrl>#__managed_style_015857FDCA3FCBFD44BE</styleUrl>
		<Point>
			<coordinates>-43.10674294458667,-22.83759790338766,21.03346375426441</coordinates>
		</Point>
	</Placemark>
	<Placemark id="024FEB0C8C3F8298A7F4">
		<name>asp</name>
		<LookAt>
			<longitude>-43.10705333997826</longitude>
			<latitude>-22.83708875680792</latitude>
			<altitude>19.10233238197001</altitude>
			<heading>43.55742879924197</heading>
			<tilt>0</tilt>
			<gx:fovy>30</gx:fovy>
			<range>443.5904188123823</range>
			<altitudeMode>absolute</altitudeMode>
		</LookAt>
		<styleUrl>#__managed_style_015857FDCA3FCBFD44BE</styleUrl>
		<Point>
			<coordinates>-43.10705333997826,-22.83708875680792,19.10233238197001</coordinates>
		</Point>
	</Placemark>
	<Placemark id="0978B5C5453F8298FE19">
		<name>gmc</name>
		<LookAt>
			<longitude>-43.10736732338763</longitude>
			<latitude>-22.83665782287227</latitude>
			<altitude>22.80128074088271</altitude>
			<heading>43.55755065606505</heading>
			<tilt>0</tilt>
			<gx:fovy>30</gx:fovy>
			<range>439.8914130201592</range>
			<altitudeMode>absolute</altitudeMode>
		</LookAt>
		<styleUrl>#__managed_style_015857FDCA3FCBFD44BE</styleUrl>
		<Point>
			<coordinates>-43.1073654263033,-22.83665735429301,22.83319939469576</coordinates>
		</Point>
	</Placemark>
	<Placemark id="029504586F3F829950FD">
		<name>mk46</name>
		<LookAt>
			<longitude>-43.1075433803011</longitude>
			<latitude>-22.83636136671412</latitude>
			<altitude>11.71711309942625</altitude>
			<heading>43.55761898525258</heading>
			<tilt>0</tilt>
			<gx:fovy>30</gx:fovy>
			<range>450.975590006783</range>
			<altitudeMode>absolute</altitudeMode>
		</LookAt>
		<styleUrl>#__managed_style_015857FDCA3FCBFD44BE</styleUrl>
		<Point>
			<coordinates>-43.1075433803011,-22.83636136671412,11.71711309942625</coordinates>
		</Point>
	</Placemark>
	<Placemark id="0CCFC9C1573F829A1B9A">
		<name>f21</name>
		<LookAt>
			<longitude>-43.10709504863492</longitude>
			<latitude>-22.83605934638297</latitude>
			<altitude>14.42729463661925</altitude>
			<heading>43.55744498745537</heading>
			<tilt>0</tilt>
			<gx:fovy>30</gx:fovy>
			<range>448.2654333136452</range>
			<altitudeMode>absolute</altitudeMode>
		</LookAt>
		<styleUrl>#__managed_style_015857FDCA3FCBFD44BE</styleUrl>
		<Point>
			<coordinates>-43.10709599336376,-22.83606158656787,14.20763877473735</coordinates>
		</Point>
	</Placemark>
	<Placemark id="078AA01F313F829A5FD5">
		<name>mibo</name>
		<LookAt>
			<longitude>-43.10655520210241</longitude>
			<latitude>-22.83584816388713</latitude>
			<altitude>11.13817715465637</altitude>
			<heading>43.55723547562428</heading>
			<tilt>0</tilt>
			<gx:fovy>30</gx:fovy>
			<range>451.5545664387901</range>
			<altitudeMode>absolute</altitudeMode>
		</LookAt>
		<styleUrl>#__managed_style_015857FDCA3FCBFD44BE</styleUrl>
		<Point>
			<coordinates>-43.10655520210241,-22.83584816388713,11.13817715465637</coordinates>
		</Point>
	</Placemark>
	<Placemark id="08DE8716983F829AD92A">
		<name>camm</name>
		<LookAt>
			<longitude>-43.10660959598568</longitude>
			<latitude>-22.83662658507398</latitude>
			<altitude>10.82193264948295</altitude>
			<heading>43.55706211566298</heading>
			<tilt>0</tilt>
			<gx:fovy>30</gx:fovy>
			<range>1001.928032983124</range>
			<altitudeMode>absolute</altitudeMode>
		</LookAt>
		<styleUrl>#__managed_style_015857FDCA3FCBFD44BE</styleUrl>
		<Point>
			<coordinates>-43.10660959598568,-22.83662658507398,10.82193264948295</coordinates>
		</Point>
	</Placemark>
</Document>
</kml>
